NORAD_CAT_ID,OBJECT_NAME,OBJECT_TYPE,EPOCH,MEAN_MOTION,ECCENTRICITY,INCLINATION,RA_OF_ASC_NODE,ARG_OF_PERICENTER,MEAN_ANOMALY,BSTAR,MEAN_MOTION_DOT,MEAN_MOTION_DDOT,TLE_LINE0,TLE_LINE1,TLE_LINE2,SEMIMAJOR_AXIS,PERIOD,APOGEE,PERIGEE,DECAYED
51772.0,STARLINK-3623,PAYLOAD,2024-02-01 16:11:51,15.08841233,0.0001503,53.2167,182.3854,82.8755,277.2408,7.214e-05,8.6e-06,0.0,0 STARLINK-3623,1 51772U 22017E   24032.67489591  .00000860  00000-0  72140-4 0  9996,2 51772  53.2167 182.3854 0001503  82.8755 277.2408 15.08841233106803,6917.877,95.437,540.781,538.702,0.0
51772.0,STARLINK-3623,PAYLOAD,2024-02-02 09:41:05,15.08840291,0.0001702,53.2176,179.1154,85.131,274.9876,7.98e-05,9.82e-06,0.0,0 STARLINK-3623,1 51772U 22017E   24033.40353643  .00000982  00000-0  79800-4 0  9991,2 51772  53.2176 179.1154 0001702  85.1310 274.9876 15.08840291108420,6917.879,95.438,540.922,538.567,0.0
51772.0,STARLINK-3623,PAYLOAD,2024-02-02 14:27:14,15.08840229,0.0001475,53.2172,178.2233,96.3495,263.7665,7.8331e-05,9.59e-06,0.0,0 STARLINK-3623,1 51772U 22017E   24033.60225548  .00000959  00000-0  78331-4 0  9997,2 51772  53.2172 178.2233 0001475  96.3495 263.7665 15.08840229106947,6917.88,95.438,540.765,538.724,0.0
51772.0,STARLINK-3623,PAYLOAD,2024-02-02 16:02:37,15.08841048,0.0001487,53.2173,177.9259,95.7437,264.3725,8.4181e-05,1.052e-05,0.0,0 STARLINK-3623,1 51772U 22017E   24033.66849488  .00001052  00000-0  84181-4 0  9993,2 51772  53.2173 177.9259 0001487  95.7437 264.3725 15.08841048106959,6917.877,95.437,540.771,538.713,0.0
51772.0,STARLINK-3623,PAYLOAD,2024-02-03 12:42:39,15.08838169,0.0001498,53.2177,174.0605,94.7603,265.356,2.4792e-05,1.07e-06,0.0,0 STARLINK-3623,1 51772U 22017E   24034.52961960  .00000107  00000-0  24792-4 0  9991,2 51772  53.2177 174.0605 0001498  94.7603 265.3560 15.08838169107085,6917.886,95.438,540.787,538.715,0.0
51772.0,STARLINK-3623,PAYLOAD,2024-02-03 15:53:25,15.08838383,0.000148,53.2177,173.4658,95.2983,264.8178,2.4489e-05,1.02e-06,0.0,0 STARLINK-3623,1 51772U 22017E   24034.66209949  .00000102  00000-0  24489-4 0  9996,2 51772  53.2177 173.4658 0001480  95.2983 264.8178 15.08838383108611,6917.885,95.438,540.774,538.726,0.0
51772.0,STARLINK-3623,PAYLOAD,2024-02-04 14:08:48,15.08844245,0.0001424,53.218,169.3042,88.1148,272.0007,8.0265e-05,9.9e-06,0.0,0 STARLINK-3623,1 51772U 22017E   24035.58945442  .00000990  00000-0  80265-4 0  9992,2 51772  53.2180 169.3042 0001424  88.1148 272.0007 15.08844245107242,6917.867,95.437,540.718,538.747,0.0
51772.0,STARLINK-3623,PAYLOAD,2024-02-04 15:44:11,15.08845747,0.0001436,53.2178,169.0063,90.776,269.3396,9.01e-05,1.146e-05,0.0,0 STARLINK-3623,1 51772U 22017E   24035.65569292  .00001146  00000-0  90100-4 0  9998,2 51772  53.2178 169.0063 0001436  90.7760 269.3396 15.08845747108767,6917.863,95.437,540.721,538.734,0.0
51772.0,STARLINK-3623,PAYLOAD,2024-02-05 12:24:13,15.08833533,0.0001455,53.2178,165.1401,93.6064,266.5095,2.4717e-05,1.05e-06,0.0,0 STARLINK-3623,1 51772U 22017E   24036.51682351  .00000105  00000-0  24717-4 0  9991,2 51772  53.2178 165.1401 0001455  93.6064 266.5095 15.08833533108899,6917.9,95.438,540.772,538.759,0.0
51772.0,STARLINK-3623,PAYLOAD,2024-02-05 13:59:36,15.08833624,0.0001446,53.2177,164.8427,92.7037,267.412,2.3677e-05,8.9e-07,0.0,0 STARLINK-3623,1 51772U 22017E   24036.58306369  .00000089  00000-0  23677-4 0  9995,2 51772  53.2177 164.8427 0001446  92.7037 267.4120 15.08833624107396,6917.9,95.438,540.765,538.765,0.0
51772.0,STARLINK-3623,PAYLOAD,2024-02-05 15:34:59,15.0884562,0.0001619,53.2176,164.5486,106.1328,253.9843,-9.2693e-05,-1.763e-05,0.0,0 STARLINK-3623,1 51772U 22017E   24036.64929935 -.00001763  00000-0 -92693-4 0  9998,2 51772  53.2176 164.5486 0001619 106.1328 253.9843 15.08845620108912,6917.863,95.437,540.848,538.608,0.0
51772.0,STARLINK-3623,PAYLOAD,2024-02-06 13:50:23,15.08840168,0.0001393,53.2174,160.3844,95.0403,265.0748,3.8326e-06,-2.27e-06,0.0,0 STARLINK-3623,1 51772U 22017E   24037.57666149 -.00000227  00000-0  38326-5 0  9993,2 51772  53.2174 160.3844 0001393  95.0403 265.0748 15.08840168107549,6917.88,95.438,540.709,538.781,0.0
51772.0,STARLINK-3623,PAYLOAD,2024-02-06 15:25:46,15.08840742,0.0001514,53.2176,160.0835,89.885,270.2315,-8.9958e-06,-4.31e-06,0.0,0 STARLINK-3623,1 51772U 22017E   24037.64290098 -.00000431  00000-0 -89958-5 0  9992,2 51772  53.2176 160.0835 0001514  89.8850 270.2315 15.08840742107557,6917.878,95.438,540.79,538.696,0.0
51772.0,STARLINK-3623,PAYLOAD,2024-02-07 13:41:11,15.08834486,0.0002035,53.2176,155.9216,46.011,314.105,9.7962e-07,-2.73e-06,0.0,0 STARLINK-3623,1 51772U 22017E   24038.57027208 -.00000273  00000-0  97962-6 0  9994,2 51772  53.2176 155.9216 0002035  46.0110 314.1050 15.08834486109202,6917.897,95.438,541.17,538.354,0.0
51772.0,STARLINK-3623,PAYLOAD,2024-02-07 15:16:34,15.08838326,0.0001572,53.2181,155.6256,69.9823,290.1339,3.7162e-05,3.03e-06,0.0,0 STARLINK-3623,1 51772U 22017E   24038.63650688  .00000303  00000-0  37162-4 0  9992,2 51772  53.2181 155.6256 0001572  69.9823 290.1339 15.08838326107702,6917.886,95.438,540.838,538.663,0.0
51772.0,STARLINK-3623,PAYLOAD,2024-02-08 11:56:34,15.08841023,0.0001673,53.2177,151.7607,72.5659,287.5516,9.4852e-05,1.222e-05,0.0,0 STARLINK-3623,1 51772U 22017E   24039.49762528  .00001222  00000-0  94852-4 0  9994,2 51772  53.2177 151.7607 0001673  72.5659 287.5516 15.08841023109340,6917.877,95.437,540.9,538.585,0.0
51772.0,STARLINK-3623,PAYLOAD,2024-02-08 13:31:57,15.0884656,0.0001833,53.2174,151.4633,62.3177,297.8001,6.2268e-05,7.03e-06,0.0,0 STARLINK-3623,1 51772U 22017E   24039.56386377  .00000703  00000-0  62268-4 0  9995,2 51772  53.2174 151.4633 0001833  62.3177 297.8001 15.08846560107840,6917.86,95.437,540.993,538.457,0.0
51772.0,STARLINK-3623,PAYLOAD,2024-02-08 15:07:20,15.08850809,0.000182,53.2177,151.1653,62.5101,297.6076,9.3656e-05,1.203e-05,0.0,0 STARLINK-3623,1 51772U 22017E   24039.63009922  .00001203  00000-0  93656-4 0  9992,2 51772  53.2177 151.1653 0001820  62.5101 297.6076 15.08850809109367,6917.847,95.437,540.971,538.453,0.0
51772.0,STARLINK-3623,PAYLOAD,2024-02-09 11:47:21,15.08843791,0.000169,53.2175,147.3004,71.8308,288.2868,6.1702e-05,6.94e-06,0.0,0 STARLINK-3623,1 51772U 22017E   24040.49122428  .00000694  00000-0  61702-4 0  9995,2 51772  53.2175 147.3004 0001690  71.8308 288.2868 15.08843791109490,6917.869,95.437,540.903,538.565,0.0
51772.0,STARLINK-3623,PAYLOAD,2024-02-09 13:22:44,15.08846906,0.000178,53.2181,146.9979,69.1342,290.9841,6.765e-05,7.89e-06,0.0,0 STARLINK-3623,1 51772U 22017E   24040.55746204  .00000789  00000-0  67650-4 0  9999,2 51772  53.2181 146.9979 0001780  69.1342 290.9841 15.08846906107996,6917.859,95.437,540.956,538.493,0.0
51772.0,STARLINK-3623,PAYLOAD,2024-02-09 16:33:30,15.08849734,0.0001779,53.2186,146.3969,70.936,289.1824,8.7481e-05,1.105e-05,0.0,0 STARLINK-3623,1 51772U 22017E   24040.68993850  .00001105  00000-0  87481-4 0  9991,2 51772  53.2186 146.3969 0001779  70.9360 289.1824 15.08849734109526,6917.851,95.437,540.946,538.485,0.0
51772.0,STARLINK-3623,PAYLOAD,2024-02-10 11:38:08,15.08847577,0.000167,53.2163,142.8292,127.0463,233.0682,-9.4851e-05,-1.798e-05,0.0,0 STARLINK-3623,1 51772U 22017E   24041.48482066 -.00001798  00000-0 -94851-4 0  9991,2 51772  53.2163 142.8292 0001670 127.0463 233.0682 15.08847577109645,6917.857,95.437,540.878,538.567,0.0
51772.0,STARLINK-3623,PAYLOAD,2024-02-10 13:13:31,15.08846621,0.0001412,53.2172,142.5362,90.7392,269.3762,-5.7567e-05,-1.204e-05,0.0,0 STARLINK-3623,1 51772U 22017E   24041.55106308 -.00001204  00000-0 -57567-4 0  9996,2 51772  53.2172 142.5362 0001412  90.7392 269.3762 15.08846621108145,6917.86,95.437,540.702,538.748,0.0
51772.0,STARLINK-3623,PAYLOAD,2024-02-11 13:04:18,15.08850918,0.0001613,53.218,138.0793,102.8996,257.2177,2.0257e-05,3.4e-07,0.0,0 STARLINK-3623,1 51772U 22017E   24042.54465944  .00000034  00000-0  20257-4 0  9994,2 51772  53.2180 138.0793 0001613 102.8996 257.2177 15.08850918108296,6917.847,95.437,540.828,538.596,0.0
51772.0,STARLINK-3623,PAYLOAD,2024-02-12 12:55:05,15.08854588,0.0001889,53.2185,133.6217,115.7176,244.4011,0.00018013,2.581e-05,0.0,0 STARLINK-3623,1 51772U 22017E   24043.53825257  .00002581  00000-0  18013-3 0  9996,2 51772  53.2185 133.6217 0001889 115.7176 244.4011 15.08854588108440,6917.836,95.437,541.008,538.394,0.0
51772.0,STARLINK-3623,PAYLOAD,2024-02-13 12:45:53,15.08833529,0.0001436,53.2166,129.1581,88.8258,271.2899,-0.00010317,-1.929e-05,0.0,0 STARLINK-3623,1 51772U 22017E   24044.53186693 -.00001929  00000-0 -10317-3 0  9997,2 51772  53.2166 129.1581 0001436  88.8258 271.2899 15.08833529110102,6917.9,95.438,540.759,538.772,0.0
51772.0,STARLINK-3623,PAYLOAD,2024-02-13 22:18:12,15.08831459,0.0001362,53.2169,127.3741,99.5085,260.6061,-2.6178e-05,-7.04e-06,0.0,0 STARLINK-3623,1 51772U 22017E   24044.92931532 -.00000704  00000-0 -26178-4 0  9993,2 51772  53.2169 127.3741 0001362  99.5085 260.6061 15.08831459108658,6917.906,95.438,540.714,538.829,0.0
51772.0,STARLINK-3623,PAYLOAD,2024-02-14 14:12:02,15.08851726,0.0001433,53.2167,124.3988,103.8436,256.2716,4.444e-05,4.2e-06,0.0,0 STARLINK-3623,1 51772U 22017E   24045.59170084  .00000420  00000-0  44440-4 0  9999,2 51772  53.2167 124.3988 0001433 103.8436 256.2716 15.08851726108752,6917.845,95.437,540.701,538.718,0.0
51772.0,STARLINK-3623,PAYLOAD,2024-02-14 22:08:59,15.08835798,0.0001665,53.2174,122.9117,100.1946,259.9234,2.8874e-05,1.71e-06,0.0,0 STARLINK-3623,1 51772U 22017E   24045.92291312  .00000171  00000-0  28874-4 0  9990,2 51772  53.2174 122.9117 0001665 100.1946 259.9234 15.08835798108803,6917.893,95.438,540.91,538.606,0.0
51772.0,STARLINK-3623,PAYLOAD,2024-02-15 14:02:51,15.0883526,0.0001484,53.2167,119.939,86.9559,273.1602,0.00017914,2.564e-05,0.0,0 STARLINK-3623,1 51772U 22017E   24046.58531497  .00002564  00000-0  17914-3 0  9994,2 51772  53.2167 119.9390 0001484  86.9559 273.1602 15.08835260108906,6917.895,95.438,540.786,538.733,0.0
